{"type": "FeatureCollection", "features": [ {"type": "Feature", "properties": {"norad_id": 38135, "name": "FENGYUN 1C DEB", "group": "fengyun-1c-debris", "lat": -74.91919428376289, "lon": 71.25587420264395, "alt_km": 972.1960093867947, "timestamp": "2025-12-05T22:40:48.840053+00:00", "meta": {"OBJECT_NAME": "FENGYUN 1C DEB", "OBJECT_ID": "1999-025EQG", "EPOCH": "2025-12-04T09:59:10.811040", "MEAN_MOTION": 14.2524882, "ECCENTRICITY": 0.0223375, "INCLINATION": 98.6606, "RA_OF_ASC_NODE": 35.2993, "ARG_OF_PERICENTER": 95.5388, "MEAN_ANOMALY": 267.1312, "EPHEMERIS_TYPE": 0, "CLASSIFICATION_TYPE": "U", "NORAD_CAT_ID": 38135, "ELEMENT_SET_NO": 999, "REV_AT_EPOCH": 60922, "BSTAR": 0.00083169, "MEAN_MOTION_DOT": 2.494e-05, "MEAN_MOTION_DDOT": 0}, "tle": {"line1": "1 38135U 99025EQG 25338.41609735  .00002494  00000+0  83169-3 0  9999", "line2": "2 38135  98.6606  35.2993 0223375  95.5388 267.1312 14.25248820609225"}}, "geometry": {"type": "Point", "coordinates": [71.25587420264395, -74.91919428376289]}}, {"type": "Feature", "properties": {"norad_id": 38137, "name": "FENGYUN 1C DEB", "group": "fengyun-1c-debris", "lat": 13.455090617717062, "lon": 20.693042722273912, "alt_km": 864.209150788186, "timestamp": "2025-12-05T22:40:48.840064+00:00", "meta": {"OBJECT_NAME": "FENGYUN 1C DEB", "OBJECT_ID": "1999-025EQJ", "EPOCH": "2025-12-03T09:08:14.061984", "MEAN_MOTION": 14.06146655, "ECCENTRICITY": 0.00467474, "INCLINATION": 98.8662, "RA_OF_ASC_NODE": 20.3228, "ARG_OF_PERICENTER": 95.1511, "MEAN_ANOMALY": 265.4995, "EPHEMERIS_TYPE": 0, "CLASSIFICATION_TYPE": "U", "NORAD_CAT_ID": 38137, "ELEMENT_SET_NO": 999, "REV_AT_EPOCH": 63577, "BSTAR": 0.00028746686, "MEAN_MOTION_DOT": 4.34e-06, "MEAN_MOTION_DDOT": 0}, "tle": {"line1": "1 38137U 99025EQJ 25337.38071831  .00000434  00000+0  28747-3 0  9999", "line2": "2 38137  98.8662  20.3228 0046747  95.1511 265.4995 14.06146655635776"}}, "geometry": {"type": "Point", "coordinates": [20.693042722273912, 13.455090617717062]}}, {"type": "Feature", "properties": {"norad_id": 38143, "name": "FENGYUN 1C DEB", "group": "fengyun-1c-debris", "lat": 7.621627807738403, "lon": -142.89186096895372, "alt_km": 863.4019672767263, "timestamp": "2025-12-05T22:40:48.840074+00:00", "meta": {"OBJECT_NAME": "FENGYUN 1C DEB", "OBJECT_ID": "1999-025EQQ", "EPOCH": "2025-12-02T22:04:03.833184", "MEAN_MOTION": 14.04865193, "ECCENTRICITY": 0.00557173, "INCLINATION": 99.0286, "RA_OF_ASC_NODE": 32.8796, "ARG_OF_PERICENTER": 248.4749, "MEAN_ANOMALY": 111.0473, "EPHEMERIS_TYPE": 0, "CLASSIFICATION_TYPE": "U", "NORAD_CAT_ID": 38143, "ELEMENT_SET_NO": 999, "REV_AT_EPOCH": 60145, "BSTAR": 0.00072272115, "MEAN_MOTION_DOT": 1.132e-05, "MEAN_MOTION_DDOT": 0}, "tle": {"line1": "1 38143U 99025EQQ 25336.91948881  .00001132  00000+0  72272-3 0  9990", "line2": "2 38143  99.0286  32.8796 0055717 248.4749 111.0473 14.04865193601457"}}, "geometry": {"type": "Point", "coordinates": [-142.89186096895372, 7.621627807738403]}}, {"type": "Feature", "properties": {"norad_id": 38144, "name": "FENGYUN 1C DEB", "group": "fengyun-1c-debris", "lat": -31.227680125543323, "lon": -20.52202742697773, "alt_km": 829.7149201067341, "timestamp": "2025-12-05T22:40:48.840084+00:00", "meta": {"OBJECT_NAME": "FENGYUN 1C DEB", "OBJECT_ID": "1999-025EQR", "EPOCH": "2025-11-30T05:34:28.265376", "MEAN_MOTION": 13.58961896, "ECCENTRICITY": 0.02908675, "INCLINATION": 98.9697, "RA_OF_ASC_NODE": 159.7393, "ARG_OF_PERICENTER": 223.9628, "MEAN_ANOMALY": 133.8043, "EPHEMERIS_TYPE": 0, "CLASSIFICATION_TYPE": "U", "NORAD_CAT_ID": 38144, "ELEMENT_SET_NO": 999, "REV_AT_EPOCH": 60867, "BSTAR": 0.0017584648, "MEAN_MOTION_DOT": 1.663e-05, "MEAN_MOTION_DDOT": 0}, "tle": {"line1": "1 38144U 99025EQR 25334.23227159  .00001663  00000+0  17585-2 0  9996", "line2": "2 38144  98.9697 159.7393 0290867 223.9628 133.8043 13.58961896608676"}}, "geometry": {"type": "Point", "coordinates": [-20.52202742697773, -31.227680125543323]}}, {"type": "Feature", "properties": {"norad_id": 38146, "name": "FENGYUN 1C DEB", "group": "fengyun-1c-debris", "lat": -30.16989930438699, "lon": -126.08265157542439, "alt_km": 692.169147695764, "timestamp": "2025-12-05T22:40:48.840095+00:00", "meta": {"OBJECT_NAME": "FENGYUN 1C DEB", "OBJECT_ID": "1999-025EQT", "EPOCH": "2025-12-03T10:45:50.404320", "MEAN_MOTION": 14.59033464, "ECCENTRICITY": 0.02030621, "INCLINATION": 99.485, "RA_OF_ASC_NODE": 56.6441, "ARG_OF_PERICENTER": 130.793, "MEAN_ANOMALY": 291.7125, "EPHEMERIS_TYPE": 0, "CLASSIFICATION_TYPE": "U", "NORAD_CAT_ID": 38146, "ELEMENT_SET_NO": 999, "REV_AT_EPOCH": 31744, "BSTAR": 0.0015249301, "MEAN_MOTION_DOT": 9.498e-05, "MEAN_MOTION_DDOT": 0}, "tle": {"line1": "1 38146U 99025EQT 25337.44850005  .00009498  00000+0  15249-2 0  9995", "line2": "2 38146  99.4850  56.6441 0203062 130.7930 291.7125 14.59033464317446"}}, "geometry": {"type": "Point", "coordinates": [-126.08265157542439, -30.16989930438699]}}, {"type": "Feature", "properties": {"norad_id": 38147, "name": "FENGYUN 1C DEB", "group": "fengyun-1c-debris", "lat": 11.90142190811812, "lon": 176.17082515661497, "alt_km": 847.1793457560425, "timestamp": "2025-12-05T22:40:48.840110+00:00", "meta": {"OBJECT_NAME": "FENGYUN 1C DEB", "OBJECT_ID": "1999-025EQU", "EPOCH": "2025-11-29T07:18:26.920800", "MEAN_MOTION": 14.23385127, "ECCENTRICITY": 0.0050737, "INCLINATION": 98.5592, "RA_OF_ASC_NODE": 347.8933, "ARG_OF_PERICENTER": 338.7731, "MEAN_ANOMALY": 21.1342, "EPHEMERIS_TYPE": 0, "CLASSIFICATION_TYPE": "U", "NORAD_CAT_ID": 38147, "ELEMENT_SET_NO": 999, "REV_AT_EPOCH": 60196, "BSTAR": 0.00059773367, "MEAN_MOTION_DOT": 1.331e-05, "MEAN_MOTION_DDOT": 0}, "tle": {"line1": "1 38147U 99025EQU 25333.30447825  .00001331  00000+0  59773-3 0  9998", "line2": "2 38147  98.5592 347.8933 0050737 338.7731  21.1342 14.23385127601965"}}, "geometry": {"type": "Point", "coordinates": [176.17082515661497, 11.90142190811812]}}, {"type": "Feature", "properties": {"norad_id": 38149, "name": "FENGYUN 1C DEB", "group": "fengyun-1c-debris", "lat": -68.72783013821369, "lon": 130.3129438976408, "alt_km": 792.4862383708023, "timestamp": "2025-12-05T22:40:48.840120+00:00", "meta": {"OBJECT_NAME": "FENGYUN 1C DEB", "OBJECT_ID": "1999-025EQW", "EPOCH": "2025-12-05T06:21:23.281920", "MEAN_MOTION": 14.2590639, "ECCENTRICITY": 0.00775581, "INCLINATION": 98.3564, "RA_OF_ASC_NODE": 331.8454, "ARG_OF_PERICENTER": 183.1702, "MEAN_ANOMALY": 176.8998, "EPHEMERIS_TYPE": 0, "CLASSIFICATION_TYPE": "U", "NORAD_CAT_ID": 38149, "ELEMENT_SET_NO": 999, "REV_AT_EPOCH": 70381, "BSTAR": 0.00036000927, "MEAN_MOTION_DOT": 8.44e-06, "MEAN_MOTION_DDOT": 0}, "tle": {"line1": "1 38149U 99025EQW 25339.26485280  .00000844  00000+0  36001-3 0  9995", "line2": "2 38149  98.3564 331.8454 0077558 183.1702 176.8998 14.25906390703810"}}, "geometry": {"type": "Point", "coordinates": [130.3129438976408, -68.72783013821369]}}, {"type": "Feature", "properties": {"norad_id": 38155, "name": "FENGYUN 1C DEB", "group": "fengyun-1c-debris", "lat": -30.169945129137904, "lon": 59.5962896024823, "alt_km": 782.6541073483131, "timestamp": "2025-12-05T22:40:48.840130+00:00", "meta": {"OBJECT_NAME": "FENGYUN 1C DEB", "OBJECT_ID": "1999-025ERC", "EPOCH": "2025-12-02T22:55:17.920128", "MEAN_MOTION": 14.24904344, "ECCENTRICITY": 0.0095238, "INCLINATION": 98.4544, "RA_OF_ASC_NODE": 241.676, "ARG_OF_PERICENTER": 156.473, "MEAN_ANOMALY": 204.085, "EPHEMERIS_TYPE": 0, "CLASSIFICATION_TYPE": "U", "NORAD_CAT_ID": 38155, "ELEMENT_SET_NO": 999, "REV_AT_EPOCH": 63636, "BSTAR": 0.0036122, "MEAN_MOTION_DOT": 8.816e-05, "MEAN_MOTION_DDOT": 0}, "tle": {"line1": "1 38155U 99025ERC 25336.95506852  .00008816  00000+0  36122-2 0  9994", "line2": "2 38155  98.4544 241.6760 0095238 156.4730 204.0850 14.24904344636365"}}, "geometry": {"type": "Point", "coordinates": [59.5962896024823, -30.169945129137904]}}, {"type": "Feature", "properties": {"norad_id": 38157, "name": "FENGYUN 1C DEB", "group": "fengyun-1c-debris", "lat": -21.03594599023537, "lon": -109.98727763591357, "alt_km": 1001.9630443923279, "timestamp": "2025-12-05T22:40:48.840141+00:00", "meta": {"OBJECT_NAME": "FENGYUN 1C DEB", "OBJECT_ID": "1999-025ERE", "EPOCH": "2025-12-04T11:18:50.768352", "MEAN_MOTION": 14.21692278, "ECCENTRICITY": 0.0273908, "INCLINATION": 99.6562, "RA_OF_ASC_NODE": 244.6453, "ARG_OF_PERICENTER": 137.5516, "MEAN_ANOMALY": 224.7201, "EPHEMERIS_TYPE": 0, "CLASSIFICATION_TYPE": "U", "NORAD_CAT_ID": 38157, "ELEMENT_SET_NO": 999, "REV_AT_EPOCH": 76130, "BSTAR": 0.0011969, "MEAN_MOTION_DOT": 3.798e-05, "MEAN_MOTION_DDOT": 0}, "tle": {"line1": "1 38157U 99025ERE 25338.47142093  .00003798  00000+0  11969-2 0  9994", "line2": "2 38157  99.6562 244.6453 0273908 137.5516 224.7201 14.21692278761305"}}, "geometry": {"type": "Point", "coordinates": [-109.98727763591357, -21.03594599023537]}}, {"type": "Feature", "properties": {"norad_id": 38159, "name": "FENGYUN 1C DEB", "group": "fengyun-1c-debris", "lat": 44.48052694577263, "lon": 60.71476638323075, "alt_km": 907.2589574281628, "timestamp": "2025-12-05T22:40:48.840151+00:00", "meta": {"OBJECT_NAME": "FENGYUN 1C DEB", "OBJECT_ID": "1999-025ERG", "EPOCH": "2025-12-04T22:05:20.152032", "MEAN_MOTION": 14.03448484, "ECCENTRICITY": 0.005704, "INCLINATION": 99.3156, "RA_OF_ASC_NODE": 230.39, "ARG_OF_PERICENTER": 2.347, "MEAN_ANOMALY": 357.7952, "EPHEMERIS_TYPE": 0, "CLASSIFICATION_TYPE": "U", "NORAD_CAT_ID": 38159, "ELEMENT_SET_NO": 999, "REV_AT_EPOCH": 83002, "BSTAR": 0.0010527, "MEAN_MOTION_DOT": 1.625e-05, "MEAN_MOTION_DDOT": 0}, "tle": {"line1": "1 38159U 99025ERG 25338.92037213  .00001625  00000+0  10527-2 0  9999", "line2": "2 38159  99.3156 230.3900 0057040   2.3470 357.7952 14.03448484830021"}}, "geometry": {"type": "Point", "coordinates": [60.71476638323075, 44.48052694577263]}}]}